[{"OBJECT_NAME":"JILIN-1 GAOFEN 03D47","OBJECT_ID":"2022-167L","EPOCH":"2026-03-09T22:56:46.924224","MEAN_MOTION":15.31686941,"ECCENTRICITY":0.00089304,"INCLINATION":97.6835,"RA_OF_ASC_NODE":234.6581,"ARG_OF_PERICENTER":110.4031,"MEAN_ANOMALY":249.8169,"EPHEMERIS_TYPE":0,"CLASSIFICATION_TYPE":"U","NORAD_CAT_ID":54692,"ELEMENT_SET_NO":999,"REV_AT_EPOCH":18014,"BSTAR":0.00047294748,"MEAN_MOTION_DOT":0.00014417,"MEAN_MOTION_DDOT":0},{"OBJECT_NAME":"STARLINK-34409","OBJECT_ID":"2025-133P","EPOCH":"2026-03-09T08:31:02.337888","MEAN_MOTION":15.3018738,"ECCENTRICITY":0.0001142,"INCLINATION":53.1572,"RA_OF_ASC_NODE":118.5967,"ARG_OF_PERICENTER":76.8573,"MEAN_ANOMALY":283.2555,"EPHEMERIS_TYPE":0,"CLASSIFICATION_TYPE":"U","NORAD_CAT_ID":64485,"ELEMENT_SET_NO":999,"REV_AT_EPOCH":4113,"BSTAR":0.00014323762,"MEAN_MOTION_DOT":3.884e-5,"MEAN_MOTION_DDOT":0}]
